STARLINK-3953           
1 52559U 22051AC  26068.46447361  .00001085  00000+0  86279-4 0  9992
2 52559  53.2178 120.3144 0001201  83.1983 276.9145 15.08832064211549
LEMUR-2-AHMED-ASRAR     
1 60576U 24149DN  26068.73265438  .00013045  00000+0  79773-3 0  9992
2 60576  97.7021 152.9847 0001633  18.5035 341.6253 15.10376432 85541
